IRS-P5 (CARTOSAT-1)     
1 28649U 05017A   26192.63949595  .00000622  00000+0  67981-4 0  9996
2 28649  97.5306 214.5947 0001576  56.0497 304.0872 14.91111805147460
KAZEOSAT 1              
1 39731U 14024A   26192.93098404 -.00000082  00000+0 -12045-4 0  9998
2 39731  98.3201 264.7614 0001257  81.6148 278.5184 14.42035929642120
KAZEOSAT 2              
1 40010U 14033A   26192.95104951 -.00000128  00000+0 -90762-5 0  9991
2 40010  97.5405  31.2540 0007197 232.2694 127.7871 14.85496180652635
JASON-3                 
1 41240U 16002A   26192.93480077 -.00000039  00000+0  93544-4 0  9999
2 41240  66.0417  73.8073 0008213 271.2191  88.7887 12.87628459490430
KAZSTSAT                
1 43783U 18099AB  26192.91454456  .00000825  00000+0  70912-4 0  9997
2 43783  97.4318 223.7275 0007555 353.9164   6.1967 14.99950890415014
INSAT-3DS               
1 58990U 24033A   26192.86637812 -.00000152  00000+0  00000+0 0  9991
2 58990   0.1008 265.4156 0001043 225.2891 193.0316  1.00271283 47310
IONOSFERA-M 1           
1 61735U 24199A   26192.94847982  .00000033  00000+0  34191-4 0  9995
2 61735  98.7140  65.8556 0002195  77.0868 283.0555 14.22758673131223
IONOSFERA-M 2           
1 61736U 24199B   26192.91239031  .00000029  00000+0  32652-4 0  9998
2 61736  98.7139  65.7303 0000385 112.9228 247.1990 14.22762067134341
IONOSFERA-M 3           
1 64876U 25155A   26192.95223384  .00000006  00000+0  22150-4 0  9994
2 64876  98.6038 154.2356 0002192 117.4899 242.6501 14.21490498 49922
IONOSFERA-M 4           
1 64877U 25155B   26192.98703291  .00000014  00000+0  25843-4 0  9999
2 64877  98.6037 154.1867 0001764 102.7969 257.3406 14.21492905 49929
