{
 "generated_at": "2026-07-12T07:29:19Z",
 "sources": [
  {
   "name": "CelesTrak",
   "url": "https://celestrak.org/NORAD/elements/",
   "license": "frei verfügbar; Attribution. Ursprünglich USSPACECOM/Space-Track."
  },
  {
   "name": "GCAT (J. McDowell, planet4589.org)",
   "url": "https://planet4589.org/space/gcat/",
   "license": "CC-BY 4.0"
  }
 ],
 "satellites": [
  {
   "norad": 58990,
   "name": "INSAT-3DS",
   "intl": "2024-033A",
   "group": "weather",
   "gcat": {
    "class": "C",
    "category": "MET",
    "owner": "ISRO",
    "state": "IN"
   },
   "omm": {
    "OBJECT_NAME": "INSAT-3DS",
    "OBJECT_ID": "2024-033A",
    "EPOCH": "2026-07-11T20:47:35.069568",
    "MEAN_MOTION": 1.00271283,
    "ECCENTRICITY": 0.00010435,
    "INCLINATION": 0.1008,
    "RA_OF_ASC_NODE": 265.4156,
    "ARG_OF_PERICENTER": 225.2891,
    "MEAN_ANOMALY": 193.0316,
    "EPHEMERIS_TYPE": 0,
    "CLASSIFICATION_TYPE": "U",
    "NORAD_CAT_ID": 58990,
    "ELEMENT_SET_NO": 999,
    "REV_AT_EPOCH": 4731,
    "BSTAR": 0,
    "MEAN_MOTION_DOT": -0.00000152,
    "MEAN_MOTION_DDOT": 0
   }
  },
  {
   "norad": 61735,
   "name": "IONOSFERA-M 1",
   "intl": "2024-199A",
   "group": "resource",
   "gcat": {
    "class": "C",
    "category": "SCI",
    "owner": "VNIIEMI",
    "state": "RU"
   },
   "omm": {
    "OBJECT_NAME": "IONOSFERA-M 1",
    "OBJECT_ID": "2024-199A",
    "EPOCH": "2026-07-11T22:45:48.656448",
    "MEAN_MOTION": 14.22758673,
    "ECCENTRICITY": 0.00021953,
    "INCLINATION": 98.714,
    "RA_OF_ASC_NODE": 65.8556,
    "ARG_OF_PERICENTER": 77.0868,
    "MEAN_ANOMALY": 283.0555,
    "EPHEMERIS_TYPE": 0,
    "CLASSIFICATION_TYPE": "U",
    "NORAD_CAT_ID": 61735,
    "ELEMENT_SET_NO": 999,
    "REV_AT_EPOCH": 13122,
    "BSTAR": 0.000034190886,
    "MEAN_MOTION_DOT": 3.3e-7,
    "MEAN_MOTION_DDOT": 0
   }
  },
  {
   "norad": 61736,
   "name": "IONOSFERA-M 2",
   "intl": "2024-199B",
   "group": "resource",
   "gcat": {
    "class": "C",
    "category": "SCI",
    "owner": "VNIIEMI",
    "state": "RU"
   },
   "omm": {
    "OBJECT_NAME": "IONOSFERA-M 2",
    "OBJECT_ID": "2024-199B",
    "EPOCH": "2026-07-11T21:53:50.522784",
    "MEAN_MOTION": 14.22762067,
    "ECCENTRICITY": 0.0000385,
    "INCLINATION": 98.7139,
    "RA_OF_ASC_NODE": 65.7303,
    "ARG_OF_PERICENTER": 112.9228,
    "MEAN_ANOMALY": 247.199,
    "EPHEMERIS_TYPE": 0,
    "CLASSIFICATION_TYPE": "U",
    "NORAD_CAT_ID": 61736,
    "ELEMENT_SET_NO": 999,
    "REV_AT_EPOCH": 13434,
    "BSTAR": 0.000032652229,
    "MEAN_MOTION_DOT": 2.9e-7,
    "MEAN_MOTION_DDOT": 0
   }
  },
  {
   "norad": 64876,
   "name": "IONOSFERA-M 3",
   "intl": "2025-155A",
   "group": "resource",
   "gcat": {
    "class": "C",
    "category": "SCI",
    "owner": "VNIIEMI",
    "state": "RU"
   },
   "omm": {
    "OBJECT_NAME": "IONOSFERA-M 3",
    "OBJECT_ID": "2025-155A",
    "EPOCH": "2026-07-11T22:51:13.003776",
    "MEAN_MOTION": 14.21490498,
    "ECCENTRICITY": 0.00021922,
    "INCLINATION": 98.6038,
    "RA_OF_ASC_NODE": 154.2356,
    "ARG_OF_PERICENTER": 117.4899,
    "MEAN_ANOMALY": 242.6501,
    "EPHEMERIS_TYPE": 0,
    "CLASSIFICATION_TYPE": "U",
    "NORAD_CAT_ID": 64876,
    "ELEMENT_SET_NO": 999,
    "REV_AT_EPOCH": 4992,
    "BSTAR": 0.000022150388,
    "MEAN_MOTION_DOT": 6e-8,
    "MEAN_MOTION_DDOT": 0
   }
  },
  {
   "norad": 64877,
   "name": "IONOSFERA-M 4",
   "intl": "2025-155B",
   "group": "resource",
   "gcat": {
    "class": "C",
    "category": "SCI",
    "owner": "VNIIEMI",
    "state": "RU"
   },
   "omm": {
    "OBJECT_NAME": "IONOSFERA-M 4",
    "OBJECT_ID": "2025-155B",
    "EPOCH": "2026-07-11T23:41:19.643424",
    "MEAN_MOTION": 14.21492905,
    "ECCENTRICITY": 0.00017647,
    "INCLINATION": 98.6037,
    "RA_OF_ASC_NODE": 154.1867,
    "ARG_OF_PERICENTER": 102.7969,
    "MEAN_ANOMALY": 257.3406,
    "EPHEMERIS_TYPE": 0,
    "CLASSIFICATION_TYPE": "U",
    "NORAD_CAT_ID": 64877,
    "ELEMENT_SET_NO": 999,
    "REV_AT_EPOCH": 4992,
    "BSTAR": 0.000025843323,
    "MEAN_MOTION_DOT": 1.4e-7,
    "MEAN_MOTION_DDOT": 0
   }
  },
  {
   "norad": 28649,
   "name": "IRS-P5 (CARTOSAT-1)",
   "intl": "2005-017A",
   "group": "resource",
   "gcat": {
    "class": null,
    "category": null,
    "owner": null,
    "state": null
   },
   "omm": {
    "OBJECT_NAME": "IRS-P5 (CARTOSAT-1)",
    "OBJECT_ID": "2005-017A",
    "EPOCH": "2026-07-11T15:20:52.450080",
    "MEAN_MOTION": 14.91111805,
    "ECCENTRICITY": 0.00015769,
    "INCLINATION": 97.5306,
    "RA_OF_ASC_NODE": 214.5947,
    "ARG_OF_PERICENTER": 56.0497,
    "MEAN_ANOMALY": 304.0872,
    "EPHEMERIS_TYPE": 0,
    "CLASSIFICATION_TYPE": "U",
    "NORAD_CAT_ID": 28649,
    "ELEMENT_SET_NO": 999,
    "REV_AT_EPOCH": 14746,
    "BSTAR": 0.000067981235,
    "MEAN_MOTION_DOT": 0.00000622,
    "MEAN_MOTION_DDOT": 0
   }
  },
  {
   "norad": 41240,
   "name": "JASON-3",
   "intl": "2016-002A",
   "group": "resource",
   "gcat": {
    "class": "C",
    "category": "SCI/MET",
    "owner": "CNES/NOAA",
    "state": "F"
   },
   "omm": {
    "OBJECT_NAME": "JASON-3",
    "OBJECT_ID": "2016-002A",
    "EPOCH": "2026-07-11T22:26:06.786528",
    "MEAN_MOTION": 12.87628459,
    "ECCENTRICITY": 0.00082136,
    "INCLINATION": 66.0417,
    "RA_OF_ASC_NODE": 73.8073,
    "ARG_OF_PERICENTER": 271.2191,
    "MEAN_ANOMALY": 88.7887,
    "EPHEMERIS_TYPE": 0,
    "CLASSIFICATION_TYPE": "U",
    "NORAD_CAT_ID": 41240,
    "ELEMENT_SET_NO": 999,
    "REV_AT_EPOCH": 49043,
    "BSTAR": 0.00009354439,
    "MEAN_MOTION_DOT": -3.9e-7,
    "MEAN_MOTION_DDOT": 0
   }
  },
  {
   "norad": 39731,
   "name": "KAZEOSAT 1",
   "intl": "2014-024A",
   "group": "resource",
   "gcat": {
    "class": "C",
    "category": "IMG",
    "owner": "KAZK",
    "state": "KZ"
   },
   "omm": {
    "OBJECT_NAME": "KAZEOSAT 1",
    "OBJECT_ID": "2014-024A",
    "EPOCH": "2026-07-11T22:20:37.021056",
    "MEAN_MOTION": 14.42035929,
    "ECCENTRICITY": 0.00012573,
    "INCLINATION": 98.3201,
    "RA_OF_ASC_NODE": 264.7614,
    "ARG_OF_PERICENTER": 81.6148,
    "MEAN_ANOMALY": 278.5184,
    "EPHEMERIS_TYPE": 0,
    "CLASSIFICATION_TYPE": "U",
    "NORAD_CAT_ID": 39731,
    "ELEMENT_SET_NO": 999,
    "REV_AT_EPOCH": 64212,
    "BSTAR": -0.000012045053,
    "MEAN_MOTION_DOT": -8.2e-7,
    "MEAN_MOTION_DDOT": 0
   }
  },
  {
   "norad": 40010,
   "name": "KAZEOSAT 2",
   "intl": "2014-033A",
   "group": "resource",
   "gcat": {
    "class": "C",
    "category": "IMG",
    "owner": "KAZK",
    "state": "KZ"
   },
   "omm": {
    "OBJECT_NAME": "KAZEOSAT 2",
    "OBJECT_ID": "2014-033A",
    "EPOCH": "2026-07-11T22:49:30.677664",
    "MEAN_MOTION": 14.8549618,
    "ECCENTRICITY": 0.00071973,
    "INCLINATION": 97.5405,
    "RA_OF_ASC_NODE": 31.254,
    "ARG_OF_PERICENTER": 232.2694,
    "MEAN_ANOMALY": 127.7871,
    "EPHEMERIS_TYPE": 0,
    "CLASSIFICATION_TYPE": "U",
    "NORAD_CAT_ID": 40010,
    "ELEMENT_SET_NO": 999,
    "REV_AT_EPOCH": 65263,
    "BSTAR": -0.000009076203,
    "MEAN_MOTION_DOT": -0.00000128,
    "MEAN_MOTION_DDOT": 0
   }
  },
  {
   "norad": 43783,
   "name": "KAZSTSAT",
   "intl": "2018-099AB",
   "group": "resource",
   "gcat": {
    "class": "B",
    "category": "IMG",
    "owner": "GHALAM",
    "state": "KZ"
   },
   "omm": {
    "OBJECT_NAME": "KAZSTSAT",
    "OBJECT_ID": "2018-099AB",
    "EPOCH": "2026-07-11T21:56:56.649984",
    "MEAN_MOTION": 14.9995089,
    "ECCENTRICITY": 0.00075555,
    "INCLINATION": 97.4318,
    "RA_OF_ASC_NODE": 223.7275,
    "ARG_OF_PERICENTER": 353.9164,
    "MEAN_ANOMALY": 6.1967,
    "EPHEMERIS_TYPE": 0,
    "CLASSIFICATION_TYPE": "U",
    "NORAD_CAT_ID": 43783,
    "ELEMENT_SET_NO": 999,
    "REV_AT_EPOCH": 41501,
    "BSTAR": 0.000070912126,
    "MEAN_MOTION_DOT": 0.00000825,
    "MEAN_MOTION_DDOT": 0
   }
  }
 ]
}
